0 CZ-4 DEB
1 26230U 99057DU  13281.84511729  .00029076  00000-0  10700-2 0  1339
2 26230 098.7587 268.5924 0017986 159.5305 200.6654 15.27681157740898
0 CZ-4 DEB
1 26230U 99057DU  13282.50010218  .00042246  00000-0  15465-2 0  1348
2 26230 098.7588 269.3611 0018077 157.5201 202.6831 15.27761110740994
0 CZ-4 DEB
1 26230U 99057DU  13282.95857074  .00037669  00000-0  13795-2 0  1354
2 26230 098.7588 269.8990 0018140 156.1139 204.0942 15.27775642741068
0 CZ-4 DEB
1 26230U 99057DU  13283.35155780  .00059053  00000-0  21684-2 0  1362
2 26230 098.7574 270.3591 0017932 155.3477 204.9133 15.27782223741122
0 CZ-4 DEB
1 26230U 99057DU  13283.74451058  .00051289  00000-0  18811-2 0  1385
2 26230 098.7606 270.8224 0017435 153.6433 206.6209 15.27829320741186
0 CZ-4 DEB
1 26230U 99057DU  13283.94097890  .00036047  00000-0  13181-2 0  1365
2 26230 098.7586 271.0523 0018289 153.0799 207.1389 15.27834012741218
0 CZ-4 DEB
1 26230U 99057DU  13285.51275492  .00032123  00000-0  11720-2 0  1375
2 26230 098.7585 272.8978 0018413 147.9947 212.2411 15.27933337741455
0 CZ-4 DEB
1 26230U 99057DU  13286.75700498  .00034890  00000-0  12694-2 0  1386
2 26230 098.7579 274.3587 0018577 144.1937 216.0548 15.28002235741649
0 CZ-4 DEB
1 26230U 99057DU  13287.80474868  .00046879  00000-0  16977-2 0  1391
2 26230 098.7580 275.5888 0018661 141.1671 219.0909 15.28077884741808
0 CZ-4 DEB
1 26230U 99057DU  13288.91790861  .00047380  00000-0  17105-2 0  1402
2 26230 098.7577 276.8963 0018751 137.6882 222.5804 15.28175726741971
0 CZ-4 DEB
1 26230U 99057DU  13289.96552787  .00043769  00000-0  15773-2 0  1418
2 26230 098.7576 278.1266 0018884 134.6242 225.6537 15.28253421742130
0 CZ-4 DEB
1 26230U 99057DU  13291.40591462  .00043177  00000-0  15507-2 0  1422
2 26230 098.7580 279.8181 0019013 130.4359 229.8538 15.28366280742356
0 CZ-4 DEB
1 26230U 99057DU  13292.78073078  .00043503  00000-0  15571-2 0  1437
2 26230 098.7584 281.4330 0019122 126.3137 233.9868 15.28473473742562
0 CZ-4 DEB
1 26230U 99057DU  13293.82814711  .00046040  00000-0  16434-2 0  1449
2 26230 098.7586 282.6636 0019207 123.3497 236.9581 15.28546935742723
0 CZ-4 DEB
1 26230U 99057DU  13295.00642901  .00044402  00000-0  15812-2 0  1451
2 26230 098.7591 284.0481 0019271 119.9429 240.3723 15.28632644742900
